$$SOE
2459580.500000000, A.D. 2022-Jan-01 00:00:00.0000, -1.788646253860191E+08, 3.611277214068432E+08, 1.407549215327643E+08,
2459587.500000000, A.D. 2022-Jan-08 00:00:00.0000, -1.897576930761261E+08, 3.585570958771920E+08, 1.402390280806323E+08,
2459594.500000000, A.D. 2022-Jan-15 00:00:00.0000, -2.005343433804486E+08, 3.557663589699703E+08, 1.396370442127906E+08,
2459601.500000000, A.D. 2022-Jan-22 00:00:00.0000, -2.111899770682014E+08, 3.527608067841822E+08, 1.389507458198336E+08,
2459608.500000000, A.D. 2022-Jan-29 00:00:00.0000, -2.217202481531764E+08, 3.495457504747815E+08, 1.381819237179095E+08,
2459615.500000000, A.D. 2022-Feb-05 00:00:00.0000, -2.321210588171607E+08, 3.461265061950249E+08, 1.373323800289356E+08,
2459622.500000000, A.D. 2022-Feb-12 00:00:00.0000, -2.423885519695742E+08, 3.425083846826538E+08, 1.364039245295340E+08,
2459629.500000000, A.D. 2022-Feb-19 00:00:00.0000, -2.525191028254561E+08, 3.386966828337871E+08, 1.353983712789325E+08,
2459636.500000000, A.D. 2022-Feb-26 00:00:00.0000, -2.625093108622323E+08, 3.346966765176399E+08, 1.343175355812862E+08,
2459643.500000000, A.D. 2022-Mar-05 00:00:00.0000, -2.723559920380453E+08, 3.305136139881018E+08, 1.331632312089645E+08,
2459650.500000000, A.D. 2022-Mar-12 00:00:00.0000, -2.820561710874078E+08, 3.261527097972302E+08, 1.319372678512184E+08,
2459657.500000000, A.D. 2022-Mar-19 00:00:00.0000, -2.916070738567255E+08, 3.216191392085385E+08, 1.306414487734564E+08,
2459664.500000000, A.D. 2022-Mar-26 00:00:00.0000, -3.010061196871207E+08, 3.169180330735469E+08, 1.292775686737043E+08,
2459671.500000000, A.D. 2022-Apr-02 00:00:00.0000, -3.102509138030259E+08, 3.120544730851095E+08, 1.278474117144932E+08,
2459678.500000000, A.D. 2022-Apr-09 00:00:00.0000, -3.193392394574060E+08, 3.070334873819041E+08, 1.263527496947103E+08,
2459685.500000000, A.D. 2022-Apr-16 00:00:00.0000, -3.282690494964306E+08, 3.018600471280952E+08, 1.247953403714061E+08,
2459692.500000000, A.D. 2022-Apr-23 00:00:00.0000, -3.370384586302882E+08, 2.965390651234157E+08, 1.231769261264600E+08,
2459699.500000000, A.D. 2022-Apr-30 00:00:00.0000, -3.456457382954811E+08, 2.910753941716167E+08, 1.214992329567379E+08,
2459706.500000000, A.D. 2022-May-07 00:00:00.0000, -3.540893110560388E+08, 2.854738232070592E+08, 1.197639693354166E+08,
2459713.500000000, A.D. 2022-May-14 00:00:00.0000, -3.623677431626828E+08, 2.797390741893449E+08, 1.179728250550166E+08,
2459720.500000000, A.D. 2022-May-21 00:00:00.0000, -3.704797373103075E+08, 2.738758004991659E+08, 1.161274702918821E+08,
2459727.500000000, A.D. 2022-May-28 00:00:00.0000, -3.784241260791785E+08, 2.678885858539104E+08, 1.142295548496218E+08,
2459734.500000000, A.D. 2022-Jun-04 00:00:00.0000, -3.861998657864626E+08, 2.617819434079229E+08, 1.122807075222591E+08,
2459741.500000000, A.D. 2022-Jun-11 00:00:00.0000, -3.938060306057363E+08, 2.555603150179472E+08, 1.102825355560108E+08,
2459748.500000000, A.D. 2022-Jun-18 00:00:00.0000, -4.012418069170483E+08, 2.492280706665851E+08, 1.082366241997163E+08,
2459755.500000000, A.D. 2022-Jun-25 00:00:00.0000, -4.085064878583117E+08, 2.427895079914268E+08, 1.061445363314462E+08,
2459762.500000000, A.D. 2022-Jul-02 00:00:00.0000, -4.155994679431631E+08, 2.362488518361193E+08, 1.040078121369625E+08,
2459769.500000000, A.D. 2022-Jul-09 00:00:00.0000, -4.225202373532404E+08, 2.296102539833573E+08, 1.018279688124039E+08,
2459776.500000000, A.D. 2022-Jul-16 00:00:00.0000, -4.292683759576756E+08, 2.228777941364086E+08, 9.960650037884940E+07,
2459783.500000000, A.D. 2022-Jul-23 00:00:00.0000, -4.358435492560472E+08, 2.160554822118806E+08, 9.734487781148732E+07,
2459790.500000000, A.D. 2022-Jul-30 00:00:00.0000, -4.422455061581308E+08, 2.091472585768746E+08, 9.504454919686610E+07,
2459797.500000000, A.D. 2022-Aug-06 00:00:00.0000, -4.484740749964096E+08, 2.021569928661672E+08, 9.270693963610032E+07,
2459804.500000000, A.D. 2022-Aug-13 00:00:00.0000, -4.545291585891812E+08, 1.950884841204088E+08, 9.033345118981645E+07,
2459811.500000000, A.D. 2022-Aug-20 00:00:00.0000, -4.604107299202442E+08, 1.879454617301705E+08, 8.792546296379146E+07,
2459818.500000000, A.D. 2022-Aug-27 00:00:00.0000, -4.661188283632006E+08, 1.807315864495979E+08, 8.548433126616049E+07,
2459825.500000000, A.D. 2022-Sep-03 00:00:00.0000, -4.716535561974896E+08, 1.734504513601497E+08, 8.301138980088827E+07,
2459832.500000000, A.D. 2022-Sep-10 00:00:00.0000, -4.770150753206229E+08, 1.661055827998503E+08, 8.050794988773993E+07,
2459839.500000000, A.D. 2022-Sep-17 00:00:00.0000, -4.822036041214221E+08, 1.587004412484773E+08, 7.797530070254540E+07,
2459846.500000000, A.D. 2022-Sep-24 00:00:00.0000, -4.872194144475816E+08, 1.512384221104274E+08, 7.541470952476007E+07,
2459853.500000000, A.D. 2022-Oct-01 00:00:00.0000, -4.920628284210184E+08, 1.437228563657321E+08, 7.282742196528758E+07,
2459860.500000000, A.D. 2022-Oct-08 00:00:00.0000, -4.967342146873263E+08, 1.361570116039996E+08, 7.021466217690261E+07,
2459867.500000000, A.D. 2022-Oct-15 00:00:00.0000, -5.012339850257837E+08, 1.285440946332832E+08, 6.757763322816390E+07,
2459874.500000000, A.D. 2022-Oct-22 00:00:00.0000, -5.055625934979407E+08, 1.208872539738432E+08, 6.491751770124938E+07,
2459881.500000000, A.D. 2022-Oct-29 00:00:00.0000, -5.097205356337587E+08, 1.131895796392896E+08, 6.223547807085349E+07,
2459888.500000000, A.D. 2022-Nov-05 00:00:00.0000, -5.137083455506808E+08, 1.054541029428642E+08, 5.953265689356734E+07,
2459895.500000000, A.D. 2022-Nov-12 00:00:00.0000, -5.175265929650046E+08, 9.768379759193364E+07, 5.681017708949260E+07,
2459902.500000000, A.D. 2022-Nov-19 00:00:00.0000, -5.211758808107175E+08, 8.988158111294925E+07, 5.406914230237472E+07,
2459909.500000000, A.D. 2022-Nov-26 00:00:00.0000, -5.246568431992240E+08, 8.205031620676380E+07, 5.131063728018132E+07,
2459916.500000000, A.D. 2022-Dec-03 00:00:00.0000, -5.279701435490886E+08, 7.419281202013622E+07, 4.853572825850187E+07,
2459923.500000000, A.D. 2022-Dec-10 00:00:00.0000, -5.311164728354279E+08, 6.631182534945466E+07, 4.574546334282382E+07,
2459930.500000000, A.D. 2022-Dec-17 00:00:00.0000, -5.340965479296573E+08, 5.841006174917454E+07, 4.294087288425639E+07,
2459937.500000000, A.D. 2022-Dec-24 00:00:00.0000, -5.369111099158925E+08, 5.049017647688626E+07, 4.012296983232916E+07,
2459944.500000000, A.D. 2022-Dec-31 00:00:00.0000, -5.395609220221982E+08, 4.255477538054666E+07, 3.729275004001874E+07,
2459951.500000000, A.D. 2023-Jan-07 00:00:00.0000, -5.420467670398463E+08, 3.460641668843502E+07, 3.445119258766484E+07,
2459958.500000000, A.D. 2023-Jan-14 00:00:00.0000, -5.443694461938752E+08, 2.664761419676430E+07, 3.159926034616219E+07,
2459965.500000000, A.D. 2023-Jan-21 00:00:00.0000, -5.465297801070101E+08, 1.868083868080328E+07, 2.873790057877923E+07,
2459972.500000000, A.D. 2023-Jan-28 00:00:00.0000, -5.485286081860846E+08, 1.070851733349836E+07, 2.586804522875487E+07,
2459979.500000000, A.D. 2023-Feb-04 00:00:00.0000, -5.503667866352874E+08, 2.733034258749088E+06, 2.299061115880457E+07,
2459986.500000000, A.D. 2023-Feb-11 00:00:00.0000, -5.520451868877125E+08, -5.243268175556069E+06, 2.010650049100475E+07,
2459993.500000000, A.D. 2023-Feb-18 00:00:00.0000, -5.535646945158905E+08, -1.321808794888597E+07, 1.721660098530351E+07,
2460000.500000000, A.D. 2023-Feb-25 00:00:00.0000, -5.549262083560455E+08, -2.118916212585087E+07, 1.432178641913293E+07,
2460007.500000000, A.D. 2023-Mar-04 00:00:00.0000, -5.561306397410793E+08, -2.915426570159433E+07, 1.142291696013888E+07,
2460014.500000000, A.D. 2023-Mar-11 00:00:00.0000, -5.571789118107007E+08, -3.711121055423639E+07, 8.520839529355450E+06,
2460021.500000000, A.D. 2023-Mar-18 00:00:00.0000, -5.580719588486878E+08, -4.505784455379457E+07, 5.616388146430988E+06,
2460028.500000000, A.D. 2023-Mar-25 00:00:00.0000, -5.588107254410862E+08, -5.299205087473994E+07, 2.710384234427847E+06,
2460035.500000000, A.D. 2023-Apr-01 00:00:00.0000, -5.593961650279711E+08, -6.091174711877985E+07, -1.963631225129105E+05,
2460042.500000000, A.D. 2023-Apr-08 00:00:00.0000, -5.598292384614012E+08, -6.881488302307121E+07, -3.103056811979685E+06,
2460049.500000000, A.D. 2023-Apr-15 00:00:00.0000, -5.601109149044452E+08, -7.669943786057255E+07, -6.008911092535052E+06,
2460056.500000000, A.D. 2023-Apr-22 00:00:00.0000, -5.602421732610989E+08, -8.456342058482246E+07, -8.913151174755428E+06,
2460063.500000000, A.D. 2023-Apr-29 00:00:00.0000, -5.602240014008127E+08, -9.240487046574813E+07, -1.181501305082975E+07,
2460070.500000000, A.D. 2023-May-06 00:00:00.0000, -5.600573949356821E+08, -1.002218564347974E+08, -1.471374326572903E+07,
2460077.500000000, A.D. 2023-May-13 00:00:00.0000, -5.597433565252185E+08, -1.080124760327763E+08, -1.760859861352601E+07,
2460084.500000000, A.D. 2023-May-20 00:00:00.0000, -5.592828954732020E+08, -1.157748544511189E+08, -2.049884582071921E+07,
2460091.500000000, A.D. 2023-May-27 00:00:00.0000, -5.586770274215478E+08, -1.235071436953306E+08, -2.338376123694281E+07,
2460098.500000000, A.D. 2023-Jun-03 00:00:00.0000, -5.579267740816069E+08, -1.312075218440338E+08, -2.626263053640090E+07,
2460105.500000000, A.D. 2023-Jun-10 00:00:00.0000, -5.570331629771050E+08, -1.388741924172108E+08, -2.913474843349593E+07,
2460112.500000000, A.D. 2023-Jun-17 00:00:00.0000, -5.559972271081239E+08, -1.465053839139239E+08, -3.199941842592015E+07,
2460119.500000000, A.D. 2023-Jun-24 00:00:00.0000, -5.548200042151401E+08, -1.540993494640694E+08, -3.485595259024661E+07,
2460126.500000000, A.D. 2023-Jul-01 00:00:00.0000, -5.535025353892677E+08, -1.616543657659519E+08, -3.770367138578513E+07,
2460133.500000000, A.D. 2023-Jul-08 00:00:00.0000, -5.520458647018650E+08, -1.691687304873229E+08, -4.054190324615726E+07,
2460140.500000000, A.D. 2023-Jul-15 00:00:00.0000, -5.504510411296999E+08, -1.766407609595029E+08, -4.336998407292219E+07,
2460147.500000000, A.D. 2023-Jul-22 00:00:00.0000, -5.487191192541479E+08, -1.840687951985324E+08, -4.618725703894318E+07,
$$EOE